{
  "type": "FeatureCollection",
  "features": [
    {
      "type": "Feature",
      "properties": {
        "norad_id": 50032,
        "name": "COSMOS 1408 DEB",
        "group": "cosmos-1408-debris",
        "lat": 21.046475003099765,
        "lon": 48.4035301994863,
        "alt_km": 437.68364097653284,
        "timestamp": "2025-12-25T09:48:52.560888+00:00",
        "meta_object_name": "COSMOS 1408 DEB",
        "meta_object_id": "1982-092RU",
        "meta_epoch": "2025-12-25T03:30:30.157632",
        "meta_mean_motion": 15.45815363,
        "meta_eccentricity": 0.0016518,
        "meta_inclination": 82.5629,
        "meta_ra_of_asc_node": 45.7917,
        "meta_arg_of_pericenter": 162.9312,
        "meta_mean_anomaly": 197.2496,
        "meta_ephemeris_type": 0,
        "meta_classification_type": "U",
        "meta_norad_cat_id": 50032,
        "meta_element_set_no": 999,
        "meta_rev_at_epoch": 22795,
        "meta_bstar": 0.00010821,
        "meta_mean_motion_dot": 5.311e-05,
        "meta_mean_motion_ddot": 0,
        "tle_line1": "1 50032U 82092RU  25359.14618238  .00005311  00000+0  10821-3 0  9992",
        "tle_line2": "2 50032  82.5629  45.7917 0016518 162.9312 197.2496 15.45815363227956"
      },
      "geometry": {
        "type": "Point",
        "coordinates": [
          48.4035301994863,
          21.046475003099765
        ]
      }
    },
    {
      "type": "Feature",
      "properties": {
        "norad_id": 50058,
        "name": "COSMOS 1408 DEB",
        "group": "cosmos-1408-debris",
        "lat": -4.494748942524663,
        "lon": 55.48951079667101,
        "alt_km": 372.0764585863053,
        "timestamp": "2025-12-25T09:48:52.560909+00:00",
        "meta_object_name": "COSMOS 1408 DEB",
        "meta_object_id": "1982-092SW",
        "meta_epoch": "2025-12-25T03:41:42.230400",
        "meta_mean_motion": 15.64847387,
        "meta_eccentricity": 0.0015798,
        "meta_inclination": 82.6116,
        "meta_ra_of_asc_node": 56.3412,
        "meta_arg_of_pericenter": 57.0154,
        "meta_mean_anomaly": 303.2621,
        "meta_ephemeris_type": 0,
        "meta_classification_type": "U",
        "meta_norad_cat_id": 50058,
        "meta_element_set_no": 999,
        "meta_rev_at_epoch": 22998,
        "meta_bstar": 0.00032376,
        "meta_mean_motion_dot": 0.00031855,
        "meta_mean_motion_ddot": 0,
        "tle_line1": "1 50058U 82092SW  25359.15396100  .00031855  00000+0  32376-3 0  9993",
        "tle_line2": "2 50058  82.6116  56.3412 0015798  57.0154 303.2621 15.64847387229987"
      },
      "geometry": {
        "type": "Point",
        "coordinates": [
          55.48951079667101,
          -4.494748942524663
        ]
      }
    },
    {
      "type": "Feature",
      "properties": {
        "norad_id": 50404,
        "name": "COSMOS 1408 DEB",
        "group": "cosmos-1408-debris",
        "lat": 1.3447194447322113,
        "lon": -157.77200513657934,
        "alt_km": 624.2125191782043,
        "timestamp": "2025-12-25T09:48:52.560923+00:00",
        "meta_object_name": "COSMOS 1408 DEB",
        "meta_object_id": "1982-092ADS",
        "meta_epoch": "2025-12-24T21:07:59.963232",
        "meta_mean_motion": 15.1571343,
        "meta_eccentricity": 0.0166865,
        "meta_inclination": 82.202,
        "meta_ra_of_asc_node": 202.5864,
        "meta_arg_of_pericenter": 157.1194,
        "meta_mean_anomaly": 203.7589,
        "meta_ephemeris_type": 0,
        "meta_classification_type": "U",
        "meta_norad_cat_id": 50404,
        "meta_element_set_no": 999,
        "meta_rev_at_epoch": 21377,
        "meta_bstar": 0.0034307677,
        "meta_mean_motion_dot": 0.00094276,
        "meta_mean_motion_ddot": 0,
        "tle_line1": "1 50404U 82092ADS 25358.88055513  .00094276  00000+0  34308-2 0  9999",
        "tle_line2": "2 50404  82.2020 202.5864 0166865 157.1194 203.7589 15.15713430213770"
      },
      "geometry": {
        "type": "Point",
        "coordinates": [
          -157.77200513657934,
          1.3447194447322113
        ]
      }
    },
    {
      "type": "Feature",
      "properties": {
        "norad_id": 50621,
        "name": "COSMOS 1408 DEB",
        "group": "cosmos-1408-debris",
        "lat": 30.024552749818966,
        "lon": 65.31110090922894,
        "alt_km": 389.386104243159,
        "timestamp": "2025-12-25T09:48:52.560934+00:00",
        "meta_object_name": "COSMOS 1408 DEB",
        "meta_object_id": "1982-092ALR",
        "meta_epoch": "2025-12-24T10:33:08.293248",
        "meta_mean_motion": 15.57249647,
        "meta_eccentricity": 0.00291087,
        "meta_inclination": 82.5683,
        "meta_ra_of_asc_node": 61.9949,
        "meta_arg_of_pericenter": 110.4695,
        "meta_mean_anomaly": 249.969,
        "meta_ephemeris_type": 0,
        "meta_classification_type": "U",
        "meta_norad_cat_id": 50621,
        "meta_element_set_no": 999,
        "meta_rev_at_epoch": 22432,
        "meta_bstar": 0.00038535081,
        "meta_mean_motion_dot": 0.00028709,
        "meta_mean_motion_ddot": 0,
        "tle_line1": "1 50621U 82092ALR 25358.43967932  .00028709  00000+0  38535-3 0  9993",
        "tle_line2": "2 50621  82.5683  61.9949 0029108 110.4695 249.9690 15.57249647224324"
      },
      "geometry": {
        "type": "Point",
        "coordinates": [
          65.31110090922894,
          30.024552749818966
        ]
      }
    }
  ]
}